[{"OBJECT_NAME":"STARLINK-5515","OBJECT_ID":"2023-083J","EPOCH":"2026-03-08T02:52:14.913120","MEAN_MOTION":15.02539897,"ECCENTRICITY":0.00013327,"INCLINATION":43.0045,"RA_OF_ASC_NODE":90.3545,"ARG_OF_PERICENTER":261.8232,"MEAN_ANOMALY":98.2459,"EPHEMERIS_TYPE":0,"CLASSIFICATION_TYPE":"U","NORAD_CAT_ID":56884,"ELEMENT_SET_NO":999,"REV_AT_EPOCH":15143,"BSTAR":3.5209572e-5,"MEAN_MOTION_DOT":2.72e-6,"MEAN_MOTION_DDOT":0},{"OBJECT_NAME":"PEGASUS DEB","OBJECT_ID":"1994-029AFQ","EPOCH":"2026-03-08T03:35:33.923616","MEAN_MOTION":14.03181486,"ECCENTRICITY":0.04520735,"INCLINATION":82.1295,"RA_OF_ASC_NODE":34.4203,"ARG_OF_PERICENTER":342.2511,"MEAN_ANOMALY":16.3288,"EPHEMERIS_TYPE":0,"CLASSIFICATION_TYPE":"U","NORAD_CAT_ID":39917,"ELEMENT_SET_NO":999,"REV_AT_EPOCH":9491,"BSTAR":0.0063311837,"MEAN_MOTION_DOT":0.00024723,"MEAN_MOTION_DDOT":0}]
